$$SOE
2461302.500000000, A.D. 2026-Sep-19 00:00:00.0000, 1.408596918990134E+08, -3.407831490901924E+08, 1.177005456269646E+07,
2461309.500000000, A.D. 2026-Sep-26 00:00:00.0000, 1.504002989598324E+08, -3.353591544967589E+08, 1.083767349480079E+07,
2461316.500000000, A.D. 2026-Oct-03 00:00:00.0000, 1.597940492116361E+08, -3.296077401501744E+08, 9.894711543541208E+06,
2461323.500000000, A.D. 2026-Oct-10 00:00:00.0000, 1.690301454877956E+08, -3.235311755897093E+08, 8.941989035326451E+06,
2461330.500000000, A.D. 2026-Oct-17 00:00:00.0000, 1.780976901298080E+08, -3.171320430609443E+08, 7.980351616298124E+06,
2461337.500000000, A.D. 2026-Oct-24 00:00:00.0000, 1.869856889372181E+08, -3.104132507464581E+08, 7.010670798219934E+06,
2461344.500000000, A.D. 2026-Oct-31 00:00:00.0000, 1.956830560066321E+08, -3.033780466782056E+08, 6.033844462810352E+06,
2461351.500000000, A.D. 2026-Nov-07 00:00:00.0000, 2.041786198720211E+08, -2.960300332402755E+08, 5.050797294150040E+06,
2461358.500000000, A.D. 2026-Nov-14 00:00:00.0000, 2.124611312241094E+08, -2.883731813553578E+08, 4.062481187851951E+06,
2461365.500000000, A.D. 2026-Nov-21 00:00:00.0000, 2.205192704752989E+08, -2.804118436483117E+08, 3.069875852746025E+06,
2461372.500000000, A.D. 2026-Nov-28 00:00:00.0000, 2.283416542516240E+08, -2.721507695599060E+08, 2.073989443500251E+06,
2461379.500000000, A.D. 2026-Dec-05 00:00:00.0000, 2.359168445154840E+08, -2.635951230221642E+08, 1.075858830516532E+06,
2461386.500000000, A.D. 2026-Dec-12 00:00:00.0000, 2.432333605737809E+08, -2.547504995336262E+08, 7.654973790214956E+04,
2461393.500000000, A.D. 2026-Dec-19 00:00:00.0000, 2.502796921761903E+08, -2.456229425700123E+08, -9.228430857611299E+05,
2461400.500000000, A.D. 2026-Dec-26 00:00:00.0000, 2.570443136541734E+08, -2.362189601295933E+08, -1.921195731503233E+06,
2461407.500000000, A.D. 2027-Jan-02 00:00:00.0000, 2.635156994705533E+08, -2.265455415238707E+08, -2.917355080440745E+06,
2461414.500000000, A.D. 2027-Jan-09 00:00:00.0000, 2.696823413908868E+08, -2.166101743011180E+08, -3.910138861154452E+06,
2461421.500000000, A.D. 2027-Jan-16 00:00:00.0000, 2.755327674050136E+08, -2.064208611890381E+08, -4.898335828758284E+06,
2461428.500000000, A.D. 2027-Jan-23 00:00:00.0000, 2.810555625342356E+08, -1.959861369769203E+08, -5.880706086342320E+06,
2461435.500000000, A.D. 2027-Jan-30 00:00:00.0000, 2.862393917965682E+08, -1.853150852484603E+08, -6.855981584085792E+06,
2461442.500000000, A.D. 2027-Feb-06 00:00:00.0000, 2.910730258374806E+08, -1.744173544707798E+08, -7.822866821805634E+06,
2461449.500000000, A.D. 2027-Feb-13 00:00:00.0000, 2.955453688469428E+08, -1.633031720528470E+08, -8.780039627759203E+06,
2461456.500000000, A.D. 2027-Feb-20 00:00:00.0000, 2.996454864694795E+08, -1.519833569844046E+08, -9.726151877081655E+06,
2461463.500000000, A.D. 2027-Feb-27 00:00:00.0000, 3.033626351562746E+08, -1.404693340674239E+08, -1.065983055706905E+07,
2461470.500000000, A.D. 2027-Mar-06 00:00:00.0000, 3.066862960176709E+08, -1.287731475930713E+08, -1.157967931563478E+07,
2461477.500000000, A.D. 2027-Mar-13 00:00:00.0000, 3.096062116042241E+08, -1.169074721739772E+08, -1.248428019501317E+07,
2461484.500000000, A.D. 2027-Mar-20 00:00:00.0000, 3.121124244964908E+08, -1.048856213100080E+08, -1.337219553149404E+07,
2461491.500000000, A.D. 2027-Mar-27 00:00:00.0000, 3.141953178914955E+08, -9.272155396289952E+07, -1.424197010035884E+07,
2461498.500000000, A.D. 2027-Apr-03 00:00:00.0000, 3.158456583483096E+08, -8.042987889757611E+07, -1.509213354358692E+07,
2461505.500000000, A.D. 2027-Apr-10 00:00:00.0000, 3.170546406842996E+08, -6.802585646277133E+07, -1.592120309805236E+07,
2461512.500000000, A.D. 2027-Apr-17 00:00:00.0000, 3.178139349422914E+08, -5.552539750939143E+07, -1.672768664002062E+07,
2461519.500000000, A.D. 2027-Apr-24 00:00:00.0000, 3.181157353698652E+08, -4.294505918567562E+07, -1.751008606930284E+07,
2461526.500000000, A.D. 2027-May-01 00:00:00.0000, 3.179528115288995E+08, -3.030203725497459E+07, -1.826690106728919E+07,
2461533.500000000, A.D. 2027-May-08 00:00:00.0000, 3.173185616133404E+08, -1.761415385814895E+07, -1.899663320179089E+07,
2461540.500000000, A.D. 2027-May-15 00:00:00.0000, 3.162070662088972E+08, -4.899839441588547E+06, -1.969779016566862E+07,
2461547.500000000, A.D. 2027-May-22 00:00:00.0000, 3.146131406125743E+08, 7.821888862003071E+06, -2.036889021668816E+07,
2461554.500000000, A.D. 2027-May-29 00:00:00.0000, 3.125323886783928E+08, 2.053145122040670E+07, -2.100846724055508E+07,
2461561.500000000, A.D. 2027-Jun-05 00:00:00.0000, 3.099612586285914E+08, 3.320873486757512E+07, -2.161507625009260E+07,
2461568.500000000, A.D. 2027-Jun-12 00:00:00.0000, 3.068970983429779E+08, 4.583313033283494E+07, -2.218729908387502E+07,
2461575.500000000, A.D. 2027-Jun-19 00:00:00.0000, 3.033382092797204E+08, 5.838357340366545E+07, -2.272375032881576E+07,
2461582.500000000, A.D. 2027-Jun-26 00:00:00.0000, 2.992838987454694E+08, 7.083859270531431E+07, -2.322308348698622E+07,
2461589.500000000, A.D. 2027-Jul-03 00:00:00.0000, 2.947345300347633E+08, 8.317636298464569E+07, -2.368399736492079E+07,
2461596.500000000, A.D. 2027-Jul-10 00:00:00.0000, 2.896915698178723E+08, 9.537476411743271E+07, -2.410524264768107E+07,
2461603.500000000, A.D. 2027-Jul-17 00:00:00.0000, 2.841576321221213E+08, 1.074114457361790E+08, -2.448562861665468E+07,
2461610.500000000, A.D. 2027-Jul-24 00:00:00.0000, 2.781365183522841E+08, 1.192638972682964E+08, -2.482402997655580E+07,
2461617.500000000, A.D. 2027-Jul-31 00:00:00.0000, 2.716332530426031E+08, 1.309095233775289E+08, -2.511939375033056E+07,
2461624.500000000, A.D. 2027-Aug-07 00:00:00.0000, 2.646541144148450E+08, 1.423257256149763E+08, -2.537074606279071E+07,
2461631.500000000, A.D. 2027-Aug-14 00:00:00.0000, 2.572066567311285E+08, 1.534899895914647E+08, -2.557719854928131E+07,
2461638.500000000, A.D. 2027-Aug-21 00:00:00.0000, 2.492997244060863E+08, 1.643799737737201E+08, -2.573795464691795E+07,
2461645.500000000, A.D. 2027-Aug-28 00:00:00.0000, 2.409434606999256E+08, 1.749736004551770E+08, -2.585231590832831E+07,
2461652.500000000, A.D. 2027-Sep-04 00:00:00.0000, 2.321493092527516E+08, 1.852491506545463E+08, -2.591968794436533E+07,
2461659.500000000, A.D. 2027-Sep-11 00:00:00.0000, 2.229300065933520E+08, 1.951853614465894E+08, -2.593958584107848E+07,
2461666.500000000, A.D. 2027-Sep-18 00:00:00.0000, 2.132995653863973E+08, 2.047615241594509E+08, -2.591163903749513E+07,
2461673.500000000, A.D. 2027-Sep-25 00:00:00.0000, 2.032732483909084E+08, 2.139575823765549E+08, -2.583559561590010E+07,
2461680.500000000, A.D. 2027-Oct-02 00:00:00.0000, 1.928675330745233E+08, 2.227542287338499E+08, -2.571132593837544E+07,
2461687.500000000, A.D. 2027-Oct-09 00:00:00.0000, 1.821000669113851E+08, 2.311329994374936E+08, -2.553882556769985E+07,
2461694.500000000, A.D. 2027-Oct-16 00:00:00.0000, 1.709896135753167E+08, 2.390763653641393E+08, -2.531821742682893E+07,
2461701.500000000, A.D. 2027-Oct-23 00:00:00.0000, 1.595559905842319E+08, 2.465678186662596E+08, -2.504975317532502E+07,
2461708.500000000, A.D. 2027-Oct-30 00:00:00.0000, 1.478199992176129E+08, 2.535919544553467E+08, -2.473381375366895E+07,
2461715.500000000, A.D. 2027-Nov-06 00:00:00.0000, 1.358033461358035E+08, 2.601345476985776E+08, -2.437090887515244E+07,
2461722.500000000, A.D. 2027-Nov-13 00:00:00.0000, 1.235285554262356E+08, 2.661826223301724E+08, -2.396167544032085E+07,
2461729.500000000, A.D. 2027-Nov-20 00:00:00.0000, 1.110188748182757E+08, 2.717245095941623E+08, -2.350687532280646E+07,
2461736.500000000, A.D. 2027-Nov-27 00:00:00.0000, 9.829817865089485E+07, 2.767498978934921E+08, -2.300739245344600E+07,
2461743.500000000, A.D. 2027-Dec-04 00:00:00.0000, 8.539086661019833E+07, 2.812498744807819E+08, -2.246422897142671E+07,
2461750.500000000, A.D. 2027-Dec-11 00:00:00.0000, 7.232175878426358E+07, 2.852169575951587E+08, -2.187850051103200E+07,
2461757.500000000, A.D. 2027-Dec-18 00:00:00.0000, 5.911598844832478E+07, 2.886451184310283E+08, -2.125143073003291E+07,
2461764.500000000, A.D. 2027-Dec-25 00:00:00.0000, 4.579889388548929E+07, 2.915297928236922E+08, -2.058434515942404E+07,
2461771.500000000, A.D. 2028-Jan-01 00:00:00.0000, 3.239591043190430E+07, 2.938678827179303E+08, -1.987866445425537E+07,
$$EOE